1 04321U 70008B   21152.38406079 -.00000049  00000-0 -31166-4 0  9999
2 04321 101.5390 209.9006 0027328 257.4773 113.5326 12.52161034346924
1 04321U 70008B   21152.90022866 -.00000049  00000-0 -34546-4 0  9990
2 04321 101.5389 210.4013 0027332 256.4613 280.3176 12.52161026346987
1  4321U 70008B   21153.42263697 -.00000049  00000-0 -34502-4 0  9999
2  4321 101.5389 210.9081 0027337 255.4313 115.2353 12.52161027347501
1 04321U 70008B   21153.61496743 -.00000048  00000-0 -28769-4 0  9997
2 04321 101.5388 211.0946 0027339 255.0519 262.2246 12.52161034347072
1 04321U 70008B   21154.38124538 -.00000046  00000-0 -11933-4 0  9995
2 04321 101.5388 211.8379 0027345 253.5453 116.4561 12.52161048347173
1 04321U 70008B   21155.42055155 -.00000047  00000-0 -22591-4 0  9992
2 04321 101.5386 212.8460 0027351 251.4994 121.4478 12.52161036347302
1 04321U 70008B   21155.93541524 -.00000049  00000-0 -32323-4 0  9994
2 04321 101.5386 213.3454 0027359 250.4859 282.3539 12.52161019347360
1  4321U 70008B   21156.14932139 -.00000049  00000-0 -34937-4 0  9997
2  4321 101.5385 213.5529 0027358 250.0657 166.6006 12.52161014347846
1 04321U 70008B   21156.45874966 -.00000049  00000-0 -34918-4 0  9993
2 04321 101.5385 213.8531 0027363 249.4543 121.4458 12.52161009347433
1 04321U 70008B   21156.89449012 -.00000049  00000-0 -32896-4 0  9994
2 04321 101.5385 214.2758 0027366 248.5972 285.6791 12.52161007347484
1 04321U 70008B   21157.41754381 -.00000050  00000-0 -40041-4 0  9994
2 04321 101.5384 214.7831 0027367 247.5651 123.5066 12.52160997347554
1 04321U 70008B   21157.68239747 -.00000049  00000-0 -34694-4 0  9992
2 04321 101.5384 215.0400 0027366 247.0432 237.4164 12.52161009347583
1  4321U 70008B   21158.45609581 -.00000051  00000-0 -47172-4 0  9993
2  4321 101.5383 215.7905 0027381 245.5175 125.1016 12.52160972348132
1 04321U 70008B   21158.57250211 -.00000050  00000-0 -40196-4 0  9996
2 04321 101.5383 215.9034 0027382 245.2866 289.8405 12.52160981347692
1 04321U 70008B   21158.89184310 -.00000050  00000-0 -40224-4 0  9999
2 04321 101.5383 216.2132 0027385 244.6604 289.3656 12.52160973347730
1 04321U 70008B   21159.10509493 -.00000049  00000-0 -32633-4 0  9990
2 04321 101.5382 216.4200 0027386 244.2405 170.6638 12.52160984347760
1 04321U 70008B   21159.93039596 -.00000050  00000-0 -38346-4 0  9992
2 04321 101.5382 217.2205 0027394 242.6136 290.9637 12.52160963347869
1 04321U 70008B   21160.64494669 -.00000050  00000-0 -38775-4 0  9994
2 04321 101.5381 217.9136 0027404 241.2035 272.0239 12.52160953347951
1 04321U 70008B   21160.71737705 -.00000050  00000-0 -37750-4 0  9995
2 04321 101.5381 217.9839 0027403 241.0601 238.5268 12.52160954347968
1 04321U 70008B   21161.51342378 -.00000050  00000-0 -42352-4 0  9996
2 04321 101.5381 218.7560 0027409 239.4976 226.9472 12.52160942348067
1 04321U 70008B   21161.75580255 -.00000050  00000-0 -38332-4 0  9993
2 04321 101.5381 218.9911 0027412 239.0211 239.5433 12.52160944348093
1 04321U 70008B   21162.45149566 -.00000051  00000-0 -48862-4 0  9997
2 04321 101.5381 219.6658 0027420 237.6536 135.5913 12.52160921348185
1  4321U 70008B   21162.88745916 -.00000052  00000-0 -52635-4 0  9999
2  4321 101.5381 220.0887 0027428 236.7993 300.8266 12.52160908348688
1 04321U 70008B   21163.43639983 -.00000054  00000-0 -64148-4 0  9991
2 04321 101.5381 220.6211 0027435 235.7206 255.3431 12.52160891348307
1 04321U 70008B   21163.92519392 -.00000054  00000-0 -63733-4 0  9995
2 04321 101.5380 221.0952 0027442 234.7630 298.7278 12.52160883348368
1 04321U 70008B   21164.44837044 -.00000056  00000-0 -80651-4 0  9990
2 04321 101.5380 221.6026 0027447 233.7328 137.1065 12.52160855348431
1 04321U 70008B   21164.85970826 -.00000056  00000-0 -81144-4 0  9999
2 04321 101.5380 222.0015 0027450 232.9253 191.3357 12.52160848348489
1  4321U 70008B   21165.09139559 -.00000055  00000-0 -75127-4 0  9999
2  4321 101.5380 222.2263 0027455 232.4746 155.7320 12.52160852348965
1 04321U 70008B   21165.50795112 -.00000058  00000-0 -89664-4 0  9992
2 04321 101.5380 222.6303 0027461 231.6597 233.4786 12.52160836348564
1 04321U 70008B   21165.92262057 -.00000058  00000-0 -94544-4 0  9998
2 04321 101.5380 223.0325 0027469 230.8475 302.7241 12.52160821348613
1 04321U 70008B   21166.44588594 -.00000058  00000-0 -90103-4 0  9990
2 04321 101.5379 223.5400 0027475 229.8207 141.4998 12.52160814348684
1 04321U 70008B   21166.71021389 -.00000058  00000-0 -93768-4 0  9994
2 04321 101.5379 223.7964 0027479 229.3033 253.0361 12.52160808348718
1  4321U 70008B   21167.16495247 -.00000057  00000-0 -83099-4 0  9997
2  4321 101.5379 224.2374 0027485 228.4135 142.9041 12.52160807349226
1 04321U 70008B   21167.40460920 -.00000056  00000-0 -78821-4 0  9990
2 04321 101.5379 224.4699 0027489 227.9409 143.2311 12.52160805348805
1 04321U 70008B   21167.92039487 -.00000057  00000-0 -86757-4 0  9995
2 04321 101.5378 224.9701 0027496 226.9291 308.2894 12.52160786348862
1 04321U 70008B   21168.63479274 -.00000057  00000-0 -88549-4 0  9997
2 04321 101.5377 225.6630 0027505 225.5263 288.6530 12.52160776348952
1 04321U 70008B   21168.95910442 -.00000057  00000-0 -83181-4 0  9996
2 04321 101.5377 225.9776 0027509 224.8897 310.5855 12.52160773348991
1 04321U 70008B   21169.16418501 -.00000055  00000-0 -70730-4 0  9993
2 04321 101.5377 226.1765 0027512 224.4901 155.0449 12.52160786349028
1 04321U 70008B   21169.59709707 -.00000057  00000-0 -83732-4 0  9999
2 04321 101.5377 226.5964 0027519 223.6408 306.5255 12.52160765349073
1 04321U 70008B   21170.12454084 -.00000055  00000-0 -72496-4 0  9998
2 04321 101.5376 227.1080 0027527 222.6123 164.1301 12.52160767349140
1 04321U 70008B   21170.78252962 -.00000053  00000-0 -59561-4 0  9997
2 04321 101.5376 227.7462 0027539 221.3244 250.2085 12.52160768349229
1  4321U 70008B   21171.39936594 -.00000050  00000-0 -39346-4 0  9991
2  4321 101.5376 228.3445 0027549 220.1182 150.7790 12.52160777349751
1 04321U 70008B   21172.43830941 -.00000050  00000-0 -41914-4 0  9990
2 04321 101.5375 229.3522 0027567 218.0920 154.1155 12.52160755349437
1  4321U 70008B   21172.62979987 -.00000051  00000-0 -45766-4 0  9995
2  4321 101.5375 229.5379 0027569 217.7162 297.3161 12.52160749349907
1 04321U 70008B   21173.59077403 -.00000050  00000-0 -41815-4 0  9994
2 04321 101.5374 230.4699 0027585 215.8362 309.1893 12.52160738349576
1 04321U 70008B   21173.66106948 -.00000050  00000-0 -42728-4 0  9993
2 04321 101.5374 230.5381 0027587 215.7008 266.0647 12.52160736349580
1 04321U 70008B   21174.43544683 -.00000051  00000-0 -49986-4 0  9995
2 04321 101.5374 231.2891 0027592 214.1749 156.8086 12.52160702349682
1 04321U 70008B   21174.77796741 -.00000053  00000-0 -58276-4 0  9990
2 04321 101.5374 231.6213 0027599 213.5111 260.8143 12.52160685349722
1  4321U 70008B   21174.77796741 -.00000053  00000-0 -58276-4 0  9990
2  4321 101.5374 231.6213 0027599 213.5111 260.8143 12.52160685350173
1 04321U 70008B   21175.58868574 -.00000053  00000-0 -57679-4 0  9990
2 04321 101.5373 232.4076 0027610 211.9242 315.3659 12.52160660349820
1 04321U 70008B   21175.81765194 -.00000053  00000-0 -61462-4 0  9995
2 04321 101.5373 232.6297 0027613 211.4798 267.4947 12.52160650349850
1 04321U 70008B   21176.43276705 -.00000051  00000-0 -47412-4 0  9996
2 04321 101.5372 233.2262 0027621 210.2711 160.3119 12.52160653349933
1 04321U 70008B   21176.94827984 -.00000047  00000-0 -24073-4 0  9996
2 04321 101.5372 233.7262 0027630 209.2669 324.1327 12.52160664349997
1  4321U 70008B   21177.08447251 -.00000048  00000-0 -26157-4 0  9993
2  4321 101.5372 233.8582 0027632 209.0026 218.0590 12.52160661350464
1 04321U 70008B   21177.39192296 -.00000046  00000-0 -13795-4 0  9995
2 04321 101.5372 234.1564 0027640 208.4011 163.9823 12.52160672350058
1 04321U 70008B   21177.73479637 -.00000047  00000-0 -24955-4 0  9991
2 04321 101.5372 234.4890 0027647 207.7332 269.5819 12.52160655350091
1 04321U 70008B   21178.43035334 -.00000048  00000-0 -26039-4 0  9997
2 04321 101.5372 235.1636 0027656 206.3814 165.0001 12.52160649350183
1 04321U 70008B   21178.94564472 -.00000042  00000-0  72457-5 0  9992
2 04321 101.5372 235.6633 0027666 205.3830 327.8176 12.52160674350249
1  4321U 70008B   21179.15186178 -.00000041  00000-0  18630-4 0  9990
2  4321 101.5371 235.8633 0027670 204.9865 177.3947 12.52160691350724
1 04321U 70008B   21179.40147059 -.00000040  00000-0  20685-4 0  9995
2 04321 101.5371 236.1054 0027675 204.4930 222.5848 12.52160685350308
1 04321U 70008B   21179.73210806 -.00000042  00000-0  82054-5 0  9993
2 04321 101.5371 236.4260 0027684 203.8633 273.0129 12.52160670350344
1 04321U 70008B   21180.10889063 -.00000042  00000-0  86835-5 0  9994
2 04321 101.5371 236.7915 0027688 203.1356 171.4615 12.52160670350399
1 04321U 70008B   21180.77066604 -.00000045  00000-0 -12109-4 0  9991
2 04321 101.5370 237.4333 0027699 201.8413 274.6080 12.52160652350472
1  4321U 70008B   21181.38699300 -.00000051  00000-0 -50376-4 0  9999
2  4321 101.5370 238.0310 0027706 200.6409 172.8770 12.52160599351000
1 04321U 70008B   21181.90187314 -.00000049  00000-0 -35805-4 0  9991
2 04321 101.5370 238.5304 0027712 199.6419 333.8420 12.52160609350612
1 04321U 70008B   21182.42517111 -.00000050  00000-0 -43183-4 0  9991
2 04321 101.5370 239.0379 0027720 198.6198 172.7594 12.52160596350686
1 04321U 70008B   21182.94052277 -.00000051  00000-0 -47300-4 0  9991
2 04321 101.5370 239.5377 0027730 197.6181 335.8516 12.52160585350742
1 04321U 70008B   21183.38388027 -.00000051  00000-0 -45262-4 0  9990
2 04321 101.5370 239.9677 0027739 196.7596 174.4066 12.52160581350808
1 04321U 70008B   21183.72705611 -.00000052  00000-0 -55755-4 0  9999
2 04321 101.5369 240.3005 0027743 196.0882 281.3723 12.52160571350844
1  4321U 70008B   21183.72705611 -.00000052  00000-0 -55755-4 0  9999
2  4321 101.5369 240.3005 0027743 196.0882 281.3723 12.52160571351294
1 04321U 70008B   21184.11278839 -.00000051  00000-0 -47463-4 0  9996
2 04321 101.5369 240.6746 0027750 195.3462 220.1611 12.52160578350892
